{
  "norad_id": 57999,
  "name": "STARLINK-30552",
  "history": [
    {
      "epoch": "2026-03-28T15:40:54.610176Z",
      "apogee_km": 486.58614501919146,
      "perigee_km": 484.6244874652093,
      "latitude_deg": 3.939986171734784e-05,
      "longitude_deg": -101.08536634158416,
      "height_km": 485.5289194918933,
      "semi_major_axis_km": 6863.7423162422,
      "eccentricity": 0.0001429,
      "inclination_deg": 43.0019,
      "raan_deg": 320.2129,
      "arg_perigee_deg": 261.4029,
      "mean_anomaly_deg": 98.6661,
      "mean_motion_rev_day": 15.26726719
    },
    {
      "epoch": "2026-03-29T01:06:09.722304Z",
      "apogee_km": 486.6098935840482,
      "perigee_km": 484.5672488540531,
      "latitude_deg": -1.3119383614283152e-05,
      "longitude_deg": 115.0010091852486,
      "height_km": 485.5349348222076,
      "semi_major_axis_km": 6863.72557121905,
      "eccentricity": 0.0001488,
      "inclination_deg": 43.0019,
      "raan_deg": 317.9992,
      "arg_perigee_deg": 260.4564,
      "mean_anomaly_deg": 99.6119,
      "mean_motion_rev_day": 15.26732306
    },
    {
      "epoch": "2026-03-30T00:39:17.430912Z",
      "apogee_km": 486.66014013494623,
      "perigee_km": 484.4452274739824,
      "latitude_deg": 7.930311477804783e-06,
      "longitude_deg": 115.21766087601327,
      "height_km": 485.0864336697062,
      "semi_major_axis_km": 6863.689683804464,
      "eccentricity": 0.00016135,
      "inclination_deg": 43.0013,
      "raan_deg": 312.4652,
      "arg_perigee_deg": 282.6939,
      "mean_anomaly_deg": 77.3732,
      "mean_motion_rev_day": 15.2674428
    },
    {
      "epoch": "2026-03-30T22:38:13.168608Z",
      "apogee_km": 486.66596145853237,
      "perigee_km": 484.50992817886527,
      "latitude_deg": -2.8693197504816153e-05,
      "longitude_deg": 139.41610768333678,
      "height_km": 485.327329064267,
      "semi_major_axis_km": 6863.7249448186985,
      "eccentricity": 0.00015706,
      "inclination_deg": 43.0008,
      "raan_deg": 307.2987,
      "arg_perigee_deg": 272.0008,
      "mean_anomaly_deg": 88.0663,
      "mean_motion_rev_day": 15.26732515
    },
    {
      "epoch": "2026-03-31T00:12:25.713216Z",
      "apogee_km": 486.5714861519755,
      "perigee_km": 484.6068131788952,
      "latitude_deg": 2.0536017031335656e-05,
      "longitude_deg": 115.43120723797551,
      "height_km": 485.29569054573545,
      "semi_major_axis_km": 6863.7261496654355,
      "eccentricity": 0.00014312,
      "inclination_deg": 43.001,
      "raan_deg": 306.9305,
      "arg_perigee_deg": 274.1089,
      "mean_anomaly_deg": 85.9599,
      "mean_motion_rev_day": 15.26732113
    },
    {
      "epoch": "2026-03-31T23:45:32.532768Z",
      "apogee_km": 486.5680260308027,
      "perigee_km": 484.4538851875168,
      "latitude_deg": 7.025474513232226e-06,
      "longitude_deg": 115.64963747740293,
      "height_km": 485.31477376467905,
      "semi_major_axis_km": 6863.64795560916,
      "eccentricity": 0.00015401,
      "inclination_deg": 43.0018,
      "raan_deg": 301.3946,
      "arg_perigee_deg": 268.5513,
      "mean_anomaly_deg": 91.5162,
      "mean_motion_rev_day": 15.26758203
    }
  ]
}